ONEWEB-0291             
1 49081U 21075G   25226.53300647 -.00000055  00000+0 -17451-3 0  9994
2 49081  87.9032  66.8703 0001536  97.6596 262.4710 13.17651835193229
ONEWEB-0293             
1 49082U 21075H   25226.48241204  .00000071  00000+0  14957-3 0  9996
2 49082  87.9024  66.9126 0001623  85.3663 274.7654 13.17649143193241
ONEWEB-0294             
1 49083U 21075J   25226.47483440 -.00000215  00000+0 -63257-3 0  9995
2 49083  87.8861  51.6148 0001289  85.2083 274.9192 13.12443419194342
ONEWEB-0295             
1 49084U 21075K   25226.48155512  .00000035  00000+0  56386-4 0  9997
2 49084  87.9033  66.9138 0001572  98.0285 262.1025 13.17650084193205
ONEWEB-0296             
1 49085U 21075L   25226.53159971 -.00000239  00000+0 -70045-3 0  9992
2 49085  87.8850  51.6104 0001322 103.4332 256.6944 13.12440768194359
ONEWEB-0297             
1 49086U 21075M   25226.48619560 -.00000008  00000+0 -58389-4 0  9994
2 49086  87.8853  51.6578 0001777  92.1580 267.9752 13.12443182194952
ONEWEB-0298             
1 49087U 21075N   25226.48590626 -.00000005  00000+0 -45100-4 0  9990
2 49087  87.9024  66.9100 0001866  90.8666 269.2679 13.17650718193236
ONEWEB-0299             
1 49088U 21075P   25226.48745473  .00000022  00000+0  22210-4 0  9997
2 49088  87.9033  66.8630 0001834  93.0945 267.0396 13.17648476193212
